UWE-3                   
1 39446U 13066AG  26157.65461373  .00005074  00000+0  43622-3 0  9993
2 39446  97.8693 113.6587 0049031 356.7161   3.3731 14.96941234676006
SWARM B                 
1 39451U 13067A   26157.78984808  .00004141  00000+0  14823-3 0  9992
2 39451  87.7443 345.4764 0003404  91.4052 268.7587 15.28488317681658
SWARM A                 
1 39452U 13067B   26157.83092870  .00012296  00000+0  21309-3 0  9995
2 39452  87.3327  60.0878 0003017  91.5432 268.6174 15.50745085704644
SWARM C                 
1 39453U 13067C   26157.83081777  .00012324  00000+0  21357-3 0  9995
2 39453  87.3326  58.6690 0002995  91.6935 268.4669 15.50747351704603
SHIYAN-5 (SY-5)         
1 39455U 13068A   26157.88597794  .00000230  00000+0  79665-4 0  9993
2 39455  98.0731  29.5680 0013892 341.2243  18.8435 14.43675255660146
SES-8                   
1 39460U 13071A   26157.88097627 -.00000256  00000+0  00000+0 0  9994
2 39460   0.0132 305.3173 0002924 136.5592 225.5792  1.00271959 44329
ALICE                   
1 39467U 13072F   26157.17992002  .00007927  00000+0  38793-3 0  9990
2 39467 120.4608 258.4466 0161693 345.1507  14.4851 15.08651209113610
SMDC ONE 2.4            
1 39469U 13072H   26157.66438965  .00012602  00000+0  48300-3 0  9990
2 39469 120.4937 311.4624 0143809   7.7809 352.5455 15.17983621116231
MCUBED-2                
1 39472U 13072L   26157.61157426  .00640539  18061-3  16771-2 0  9991
2 39472 120.4679 119.7475 0025927  57.1461 303.2139 15.93839850115222
TACSAT 6                
1 39473U 13072M   26157.83793303  .00117562  00000+0  11925-2 0  9997
2 39473 120.4621  92.3205 0068116  44.9663 315.6921 15.61544876117743
SMDC ONE 2.3            
1 39474U 13072N   26157.85317281  .00119672  00000+0  11839-2 0  9995
2 39474 120.4481  95.0026 0065566  42.4143 318.1994 15.62365549115960
INMARSAT 5-F1           
1 39476U 13073A   26157.80309697  .00000042  00000+0  00000+0 0  9990
2 39476   0.0186 358.5957 0000637 343.6274 264.7433  1.00268783 45477
TKSAT-1 (TUPAC KATARI)  
1 39481U 13075A   26157.82924487 -.00000181  00000+0  00000+0 0  9995
2 39481   0.0377 172.6473 0002699 254.3403  39.5971  1.00272877 45503
COSMOS 2488 (RODNIK-S 7)
1 39483U 13076A   26157.81484495  .00000022  00000+0  89641-4 0  9993
2 39483  82.4830 175.1575 0020702 116.6749 243.6454 12.42905498564603
COSMOS 2489 (RODNIK-S 8)
1 39484U 13076B   26157.87032374  .00000043  00000+0  23894-3 0  9995
2 39484  82.4867 176.4983 0022540 116.6416 243.6975 12.42879559564666
COSMOS 2490 (RODNIK-S 9)
1 39485U 13076C   26157.84219671  .00000073  00000+0  45505-3 0  9996
2 39485  82.4813 174.5877 0022492 131.6888 228.6120 12.42877955564590
EXPRESS-AM5             
1 39487U 13077A   26156.94742374 -.00000267  00000+0  00000+0 0  9993
2 39487   0.0150 282.3642 0000663  75.1222  17.9923  1.00269992 46245
COSMOS 2493 (SKRL-756 1)
1 39490U 13078A   26157.82665985  .00002982  00000+0  22473-3 0  9995
2 39490  82.4126 271.3217 0011415 279.1340  80.8593 15.02106139676405
COSMOS 2494 (SKRL-756 2)
1 39491U 13078B   26157.77673196  .00003952  00000+0  27749-3 0  9992
2 39491  82.4128 260.8033 0015270 237.1410 122.8347 15.04808225677246
GSAT-14                 
1 39498U 14001A   26157.82108675  .00000000  00000+0  00000+0 0  9995
2 39498   0.0103 337.0057 0000869 317.4518 330.3654  1.00269293 45270
THAICOM 6               
1 39500U 14002A   26157.86211200 -.00000107  00000+0  00000+0 0  9992
2 39500   0.0791 106.9173 0004597 355.3354 181.8897  1.00270039 45357
TDRS 12                 
1 39504U 14004A   26157.83843160 -.00000257  00000+0  00000+0 0  9997
2 39504   3.9666  18.9102 0002663 197.7196 299.5716  1.00271011 44179
ABS-2                   
1 39508U 14006A   26157.83917734 -.00000072  00000+0  00000+0 0  9997
2 39508   0.0241  63.6102 0004230 359.7679 208.9107  1.00271748 45171
ATHENA-FIDUS            
1 39509U 14006B   26157.85397681  .00000168  00000+0  00000+0 0  9998
2 39509   0.0385  98.7914 0001525 349.4163 152.2992  1.00270146 44981
TURKSAT 4A              
1 39522U 14007A   26157.85484346  .00000160  00000+0  00000+0 0  9991
2 39522   0.0578 291.5483 0001426  40.0326 273.4380  1.00269701 44868
NAVSTAR 69 (USA 248)    
1 39533U 14008A   26157.21594932  .00000088  00000+0  00000+0 0  9996
2 39533  53.6529 149.7672 0084234 231.0946 128.1524  2.00559138 89460
GPM-CORE                
1 39574U 14009C   26157.78684191  .00008525  00000+0  18195-3 0  9993
2 39574  64.9731 342.9733 0012059 269.5257  90.4502 15.45424322696209
EXPRESS-AT1             
1 39612U 14010A   26157.85865683  .00000048  00000+0  00000+0 0  9997
2 39612   0.2305  85.7978 0003867  33.1621 146.6130  1.00301756 44717
EXPRESS-AT2             
1 39613U 14010B   26157.85761682  .00000092  00000+0  00000+0 0  9991
2 39613   0.0176 304.3233 0000302  77.1885 238.5023  1.00273452 44394
AMAZONAS 4A             
1 39616U 14011A   26157.83184491 -.00000239  00000+0  00000+0 0  9994
2 39616   0.0671 206.8243 0003871 256.4653  17.4063  1.00274110 44618
ASTRA 5B                
1 39617U 14011B   26157.86570994  .00000151  00000+0  00000+0 0  9997
2 39617   0.0586 315.7738 0002199 107.3141 167.3575  1.00269535 44563
COSMOS 2492 [GLONASS-M] 
1 39620U 14012A   26157.54517770 -.00000029  00000+0  00000+0 0  9995
2 39620  65.3043 314.2975 0010552 326.7612  33.1689  2.13103528 95014
SJ-11-06                
1 39624U 14014A   26157.83184571  .00000518  00000+0  11267-3 0  9995
2 39624  97.9484 184.9853 0014479  24.1779 336.0100 14.61843271649188
SENTINEL-1A             
1 39634U 14016A   26157.87607285  .00000070  00000+0  24451-4 0  9997
2 39634  98.1780 165.5595 0001436  80.8553 279.2809 14.59199465648513
IRNSS-1B                
1 39635U 14017A   26139.86086405  .00000103  00000+0  00000+0 0  9999
2 39635  28.9733 240.8911 0024226 185.2284 176.5740  1.00280229 44519
LUCH-5V                 
1 39727U 14023A   26157.85233409 -.00000254  00000+0  00000+0 0  9993
2 39727   5.1075  69.8532 0002825  28.9558 198.0024  1.00268278 44258
KAZSAT-3                
1 39728U 14023B   26157.80194534  .00000074  00000+0  00000+0 0  9993
2 39728   0.0256  49.1029 0000337 332.3779 220.9303  1.00274169 42359
KAZEOSAT 1              
1 39731U 14024A   26157.82214074  .00000168  00000+0  64036-4 0  9990
2 39731  98.3203 230.5268 0001504  75.2761 284.8596 14.42075882637069
NAVSTAR 70 (USA 251)    
1 39741U 14026A   26156.99278338 -.00000062  00000+0  00000+0 0  9993
2 39741  56.5039 331.9533 0038266 326.7338  33.0317  2.00561927 88317
COSMOS 2496 (RODNIK-S *)
1 39761U 14028A   26157.79974131  .00000093  00000+0  60135-3 0  9992
2 39761  82.4446 115.2372 0021202 100.3182 260.0289 12.42878380546228
COSMOS 2497 (RODNIK-S *)
1 39762U 14028B   26157.85565072  .00000114  00000+0  74770-3 0  9994
2 39762  82.4493 116.8880 0021802  95.4253 264.9314 12.42894053546239
COSMOS 2498 (RODNIK-S *)
1 39763U 14028C   26157.83396753  .00000083  00000+0  52558-3 0  9996
2 39763  82.4454 115.3931 0022521  95.1126 265.2525 12.42980002546264
ALOS-2                  
1 39766U 14029A   26157.85897001  .00001650  00000+0  22778-3 0  9996
2 39766  97.9213 255.1707 0001687  89.4077 270.7328 14.79468156650054
UNIFORM 1               
1 39767U 14029B   26157.17516839  .00002309  00000+0  21205-3 0  9995
2 39767  97.8051 254.6006 0004929   3.2694 356.8558 14.95810297652576
SOCRATES                
1 39768U 14029C   26157.59275413  .00002804  00000+0  26343-3 0  9990
2 39768  97.9065 270.9690 0006494  28.9349 331.2229 14.94747941652827
RISING 2                
1 39769U 14029D   26157.46046935  .00008308  00000+0  70029-3 0  9997
2 39769  97.6507 226.1741 0002307   4.7006 355.4238 14.98428349651949
EUTELSAT 3B             
1 39773U 14030A   26157.88809229  .00000034  00000+0  00000+0 0  9999
2 39773   0.0607 352.2842 0004080  85.1000 140.7302  1.00272428 43961
COSMOS 2500 [GLONASS-M] 
1 40001U 14032A   26156.30730628 -.00000032  00000+0  00000+0 0  9998
2 40001  65.2399 314.0875 0006921 182.6987 177.2913  2.13106228 93207
KAZEOSAT 2              
1 40010U 14033A   26157.85651183  .00001281  00000+0  15427-3 0  9997
2 40010  97.5412 358.0140 0008863   4.5805 355.5490 14.85460503647423
HODOYOSHI-4             
1 40011U 14033B   26157.81351478  .00002174  00000+0  24076-3 0  9990
2 40011  97.5455 343.1370 0023371 344.1705  15.8779 14.88107573647260
UNISAT-6                
1 40012U 14033C   26157.71175127  .00004181  00000+0  45042-3 0  9991
2 40012  97.7873 310.6096 0046479 102.8244 257.8172 14.88189807644602
DEIMOS-2                
1 40013U 14033D   26157.79987355  .00002110  00000+0  20463-3 0  9994
2 40013  97.5835  32.6528 0001999  61.3078 298.8343 14.93696937636173
BUGSAT-1 (TITA)         
1 40014U 14033E   26157.86837142  .00007766  00000+0  41048-3 0  9995
2 40014  98.0418 249.8146 0027250 214.1596 145.7883 15.15474218654277
HODOYOSHI-3             
1 40015U 14033F   26157.40674962  .00001223  00000+0  14676-3 0  9994
2 40015  97.6410 320.8823 0033610  32.4637 327.8637 14.85366576646028
SAUDISAT 4              
1 40016U 14033G   26157.63620825  .00000873  00000+0  12140-3 0  9993
2 40016  97.7572 304.1370 0046185 107.2479 253.3795 14.79530218644516
APRIZESAT 9             
1 40018U 14033J   26156.87254485  .00000758  00000+0  11882-3 0  9999
2 40018  97.9048 290.3486 0064978 235.9898 123.5128 14.74199706641890
APRIZESAT 10            
1 40019U 14033K   26156.90212951  .00000481  00000+0  83483-4 0  9996
2 40019  97.9637 284.1142 0077719 310.4913  48.9538 14.70872885640592
BRITE-CA1 (TORONTO)     
1 40020U 14033L   26157.64225058  .00000796  00000+0  12740-3 0  9998
2 40020  97.9728 286.7655 0077539 311.3532  48.1023 14.72662532640666
DUCHIFAT-1              
1 40021U 14033M   26157.14150127  .00131825  00000+0  14668-2 0  9996
2 40021  98.0474 214.7704 0004492 136.7008 223.4602 15.62418709654029
